[{"OBJECT_NAME":"STARLINK-32857","OBJECT_ID":"2025-029B","EPOCH":"2026-03-09T18:12:22.677120","MEAN_MOTION":15.30199584,"ECCENTRICITY":0.00011316,"INCLINATION":53.1597,"RA_OF_ASC_NODE":229.6251,"ARG_OF_PERICENTER":71.1515,"MEAN_ANOMALY":288.9609,"EPHEMERIS_TYPE":0,"CLASSIFICATION_TYPE":"U","NORAD_CAT_ID":62949,"ELEMENT_SET_NO":999,"REV_AT_EPOCH":6140,"BSTAR":0.0011005201,"MEAN_MOTION_DOT":0.00032377,"MEAN_MOTION_DDOT":0},{"OBJECT_NAME":"CZ-4C R\/B","OBJECT_ID":"2022-069B","EPOCH":"2026-03-09T22:08:25.149120","MEAN_MOTION":15.31915595,"ECCENTRICITY":0.00471341,"INCLINATION":97.9961,"RA_OF_ASC_NODE":42.6953,"ARG_OF_PERICENTER":87.2467,"MEAN_ANOMALY":273.4166,"EPHEMERIS_TYPE":0,"CLASSIFICATION_TYPE":"U","NORAD_CAT_ID":52913,"ELEMENT_SET_NO":999,"REV_AT_EPOCH":20482,"BSTAR":0.00043675127,"MEAN_MOTION_DOT":0.00013855,"MEAN_MOTION_DDOT":0}]
